{"type": "FeatureCollection", "features": [ {"type": "Feature", "properties": {"norad_id": 66708, "name": "FLOCK 4H-5", "group": "last-30-days", "lat": 25.747448864376548, "lon": -103.66009497165942, "alt_km": 509.654862901446, "timestamp": "2025-12-27T04:40:44.218008+00:00", "meta": {"OBJECT_NAME": "FLOCK 4H-5", "OBJECT_ID": "2025-276AU", "EPOCH": "2025-12-26T21:40:33.871584", "MEAN_MOTION": 15.18217748, "ECCENTRICITY": 0.00013093, "INCLINATION": 97.4376, "RA_OF_ASC_NODE": 72.4408, "ARG_OF_PERICENTER": 126.3621, "MEAN_ANOMALY": 233.7734, "EPHEMERIS_TYPE": 0, "CLASSIFICATION_TYPE": "U", "NORAD_CAT_ID": 66708, "ELEMENT_SET_NO": 999, "REV_AT_EPOCH": 427, "BSTAR": 0.00040282769, "MEAN_MOTION_DOT": 8.178e-05, "MEAN_MOTION_DDOT": 0}, "tle": {"line1": "1 66708U 25276AU  25360.90316981  .00008178  00000+0  40283-3 0  9995", "line2": "2 66708  97.4376  72.4408 0001309 126.3621 233.7734 15.18217748  4270"}}, "geometry": {"type": "Point", "coordinates": [-103.66009497165942, 25.747448864376548]}}, {"type": "Feature", "properties": {"norad_id": 66709, "name": "FLOCK 4H-6", "group": "last-30-days", "lat": 49.41134510478924, "lon": -98.48520871244074, "alt_km": 506.529929097489, "timestamp": "2025-12-27T04:40:44.218018+00:00", "meta": {"OBJECT_NAME": "FLOCK 4H-6", "OBJECT_ID": "2025-276AV", "EPOCH": "2025-12-26T21:46:47.939520", "MEAN_MOTION": 15.17962058, "ECCENTRICITY": 0.00030073, "INCLINATION": 97.4424, "RA_OF_ASC_NODE": 72.4559, "ARG_OF_PERICENTER": 191.3971, "MEAN_ANOMALY": 168.7196, "EPHEMERIS_TYPE": 0, "CLASSIFICATION_TYPE": "U", "NORAD_CAT_ID": 66709, "ELEMENT_SET_NO": 999, "REV_AT_EPOCH": 427, "BSTAR": 0.00039444735, "MEAN_MOTION_DOT": 7.948e-05, "MEAN_MOTION_DDOT": 0}, "tle": {"line1": "1 66709U 25276AV  25360.90749930  .00007948  00000+0  39445-3 0  9992", "line2": "2 66709  97.4424  72.4559 0003007 191.3971 168.7196 15.17962058  4278"}}, "geometry": {"type": "Point", "coordinates": [-98.48520871244074, 49.41134510478924]}}, {"type": "Feature", "properties": {"norad_id": 66710, "name": "FLOCK 4H-7", "group": "last-30-days", "lat": 79.87396922593787, "lon": 25.681187660347824, "alt_km": 506.6173367947149, "timestamp": "2025-12-27T04:40:44.218031+00:00", "meta": {"OBJECT_NAME": "FLOCK 4H-7", "OBJECT_ID": "2025-276AW", "EPOCH": "2025-12-26T21:59:02.207328", "MEAN_MOTION": 15.17536478, "ECCENTRICITY": 0.00010332, "INCLINATION": 97.4383, "RA_OF_ASC_NODE": 72.4219, "ARG_OF_PERICENTER": 259.7297, "MEAN_ANOMALY": 100.382, "EPHEMERIS_TYPE": 0, "CLASSIFICATION_TYPE": "U", "NORAD_CAT_ID": 66710, "ELEMENT_SET_NO": 999, "REV_AT_EPOCH": 427, "BSTAR": 0.00033026558, "MEAN_MOTION_DOT": 6.561e-05, "MEAN_MOTION_DDOT": 0}, "tle": {"line1": "1 66710U 25276AW  25360.91599777  .00006561  00000+0  33027-3 0  9997", "line2": "2 66710  97.4383  72.4219 0001033 259.7297 100.3820 15.17536478  4273"}}, "geometry": {"type": "Point", "coordinates": [25.681187660347824, 79.87396922593787]}}, {"type": "Feature", "properties": {"norad_id": 66711, "name": "FLOCK 4H-8", "group": "last-30-days", "lat": 78.97065246072931, "lon": 30.600852243205217, "alt_km": 507.47690237265397, "timestamp": "2025-12-27T04:40:44.218041+00:00", "meta": {"OBJECT_NAME": "FLOCK 4H-8", "OBJECT_ID": "2025-276AX", "EPOCH": "2025-12-26T22:00:01.999584", "MEAN_MOTION": 15.17552161, "ECCENTRICITY": 0.00023572, "INCLINATION": 97.4423, "RA_OF_ASC_NODE": 72.4452, "ARG_OF_PERICENTER": 243.2252, "MEAN_ANOMALY": 119.3944, "EPHEMERIS_TYPE": 0, "CLASSIFICATION_TYPE": "U", "NORAD_CAT_ID": 66711, "ELEMENT_SET_NO": 999, "REV_AT_EPOCH": 228, "BSTAR": -0.0011762356, "MEAN_MOTION_DOT": -0.00023583, "MEAN_MOTION_DDOT": 0}, "tle": {"line1": "1 66711U 25276AX  25360.91668981 -.00023583  00000+0 -11762-2 0  9998", "line2": "2 66711  97.4423  72.4452 0002357 243.2252 119.3944 15.17552161  2280"}}, "geometry": {"type": "Point", "coordinates": [30.600852243205217, 78.97065246072931]}}, {"type": "Feature", "properties": {"norad_id": 66712, "name": "FLOCK 4H-9", "group": "last-30-days", "lat": 54.23413012105219, "lon": -96.81172045041632, "alt_km": 515.5549466793937, "timestamp": "2025-12-27T04:40:44.218051+00:00", "meta": {"OBJECT_NAME": "FLOCK 4H-9", "OBJECT_ID": "2025-276AY", "EPOCH": "2025-12-26T21:47:30.862176", "MEAN_MOTION": 15.16209251, "ECCENTRICITY": 0.00061764, "INCLINATION": 97.4414, "RA_OF_ASC_NODE": 72.4527, "ARG_OF_PERICENTER": 238.0304, "MEAN_ANOMALY": 122.0329, "EPHEMERIS_TYPE": 0, "CLASSIFICATION_TYPE": "U", "NORAD_CAT_ID": 66712, "ELEMENT_SET_NO": 999, "REV_AT_EPOCH": 427, "BSTAR": -0.055234905, "MEAN_MOTION_DOT": -0.00983324, "MEAN_MOTION_DDOT": 0}, "tle": {"line1": "1 66712U 25276AY  25360.90799609 -.00983324  00000+0 -55235-1 0  9990", "line2": "2 66712  97.4414  72.4527 0006176 238.0304 122.0329 15.16209251  4274"}}, "geometry": {"type": "Point", "coordinates": [-96.81172045041632, 54.23413012105219]}}, {"type": "Feature", "properties": {"norad_id": 66713, "name": "FLOCK 4H-10", "group": "last-30-days", "lat": 60.20681419740892, "lon": 59.50182513510268, "alt_km": 510.43158265381044, "timestamp": "2025-12-27T04:40:44.218063+00:00", "meta": {"OBJECT_NAME": "FLOCK 4H-10", "OBJECT_ID": "2025-276AZ", "EPOCH": "2025-12-26T18:54:51.267168", "MEAN_MOTION": 15.17332391, "ECCENTRICITY": 0.00034546, "INCLINATION": 97.4388, "RA_OF_ASC_NODE": 72.2936, "ARG_OF_PERICENTER": 234.7502, "MEAN_ANOMALY": 125.3408, "EPHEMERIS_TYPE": 0, "CLASSIFICATION_TYPE": "U", "NORAD_CAT_ID": 66713, "ELEMENT_SET_NO": 999, "REV_AT_EPOCH": 425, "BSTAR": 0.00053691148, "MEAN_MOTION_DOT": 0.00010652, "MEAN_MOTION_DDOT": 0}, "tle": {"line1": "1 66713U 25276AZ  25360.78809337  .00010652  00000+0  53691-3 0  9996", "line2": "2 66713  97.4388  72.2936 0003454 234.7502 125.3408 15.17332391  4251"}}, "geometry": {"type": "Point", "coordinates": [59.50182513510268, 60.20681419740892]}}, {"type": "Feature", "properties": {"norad_id": 66714, "name": "FLOCK 4H-11", "group": "last-30-days", "lat": 79.003519537402, "lon": -65.0140490450538, "alt_km": 506.1656569229872, "timestamp": "2025-12-27T04:40:44.218075+00:00", "meta": {"OBJECT_NAME": "FLOCK 4H-11", "OBJECT_ID": "2025-276BA", "EPOCH": "2025-12-26T21:55:10.583616", "MEAN_MOTION": 15.17885511, "ECCENTRICITY": 0.00020773, "INCLINATION": 97.4407, "RA_OF_ASC_NODE": 72.4437, "ARG_OF_PERICENTER": 253.0184, "MEAN_ANOMALY": 107.0823, "EPHEMERIS_TYPE": 0, "CLASSIFICATION_TYPE": "U", "NORAD_CAT_ID": 66714, "ELEMENT_SET_NO": 999, "REV_AT_EPOCH": 427, "BSTAR": 0.00061564069, "MEAN_MOTION_DOT": 0.00012421, "MEAN_MOTION_DDOT": 0}, "tle": {"line1": "1 66714U 25276BA  25360.91331694  .00012421  00000+0  61564-3 0  9992", "line2": "2 66714  97.4407  72.4437 0002077 253.0184 107.0823 15.17885511  4279"}}, "geometry": {"type": "Point", "coordinates": [-65.0140490450538, 79.003519537402]}}, {"type": "Feature", "properties": {"norad_id": 66715, "name": "FLOCK 4H-12", "group": "last-30-days", "lat": 39.16511740994597, "lon": -101.16987536005541, "alt_km": 509.24651799814274, "timestamp": "2025-12-27T04:40:44.218086+00:00", "meta": {"OBJECT_NAME": "FLOCK 4H-12", "OBJECT_ID": "2025-276BB", "EPOCH": "2025-12-26T18:33:47.369088", "MEAN_MOTION": 15.17218053, "ECCENTRICITY": 0.00065109, "INCLINATION": 97.4384, "RA_OF_ASC_NODE": 72.3074, "ARG_OF_PERICENTER": 170.7271, "MEAN_ANOMALY": 189.4084, "EPHEMERIS_TYPE": 0, "CLASSIFICATION_TYPE": "U", "NORAD_CAT_ID": 66715, "ELEMENT_SET_NO": 999, "REV_AT_EPOCH": 456, "BSTAR": -0.036936468, "MEAN_MOTION_DOT": -0.00686834, "MEAN_MOTION_DDOT": 0}, "tle": {"line1": "1 66715U 25276BB  25360.77346492 -.00686834  00000+0 -36936-1 0  9999", "line2": "2 66715  97.4384  72.3074 0006510 170.7271 189.4084 15.17218053  4564"}}, "geometry": {"type": "Point", "coordinates": [-101.16987536005541, 39.16511740994597]}}, {"type": "Feature", "properties": {"norad_id": 66716, "name": "FLOCK 4H-13", "group": "last-30-days", "lat": 23.60314253199263, "lon": -103.98339365624845, "alt_km": 509.5110021123746, "timestamp": "2025-12-27T04:40:44.218111+00:00", "meta": {"OBJECT_NAME": "FLOCK 4H-13", "OBJECT_ID": "2025-276BC", "EPOCH": "2025-12-26T21:39:59.825664", "MEAN_MOTION": 15.18224456, "ECCENTRICITY": 0.00019737, "INCLINATION": 97.4414, "RA_OF_ASC_NODE": 72.4552, "ARG_OF_PERICENTER": 135.4545, "MEAN_ANOMALY": 224.6848, "EPHEMERIS_TYPE": 0, "CLASSIFICATION_TYPE": "U", "NORAD_CAT_ID": 66716, "ELEMENT_SET_NO": 999, "REV_AT_EPOCH": 427, "BSTAR": 0.00031811707, "MEAN_MOTION_DOT": 6.444e-05, "MEAN_MOTION_DDOT": 0}, "tle": {"line1": "1 66716U 25276BC  25360.90277576  .00006444  00000+0  31812-3 0  9992", "line2": "2 66716  97.4414  72.4552 0001973 135.4545 224.6848 15.18224456  4274"}}, "geometry": {"type": "Point", "coordinates": [-103.98339365624845, 23.60314253199263]}}, {"type": "Feature", "properties": {"norad_id": 66717, "name": "FLOCK 4H-14", "group": "last-30-days", "lat": 10.44016738563226, "lon": -105.87510367066334, "alt_km": 511.35440160345024, "timestamp": "2025-12-27T04:40:44.218122+00:00", "meta": {"OBJECT_NAME": "FLOCK 4H-14", "OBJECT_ID": "2025-276BD", "EPOCH": "2025-12-26T20:01:39.074592", "MEAN_MOTION": 15.18400823, "ECCENTRICITY": 0.00017923, "INCLINATION": 97.4407, "RA_OF_ASC_NODE": 72.3904, "ARG_OF_PERICENTER": 129.2859, "MEAN_ANOMALY": 230.8535, "EPHEMERIS_TYPE": 0, "CLASSIFICATION_TYPE": "U", "NORAD_CAT_ID": 66717, "ELEMENT_SET_NO": 999, "REV_AT_EPOCH": 351, "BSTAR": 0.00039020221, "MEAN_MOTION_DOT": 7.961e-05, "MEAN_MOTION_DDOT": 0}, "tle": {"line1": "1 66717U 25276BD  25360.83448003  .00007961  00000+0  39020-3 0  9994", "line2": "2 66717  97.4407  72.3904 0001792 129.2859 230.8535 15.18400823  3517"}}, "geometry": {"type": "Point", "coordinates": [-105.87510367066334, 10.44016738563226]}}]}